IRIDIUM 159             
1 43578U 18061K   25025.71002205  .00000471  00000+0  16125-3 0  9993
2 43578  86.3945 268.7512 0001949  81.0172 279.1244 14.34212837340648
IRIDIUM 180             
1 43922U 19002A   25025.84906572  .00000229  00000+0  74732-4 0  9996
2 43922  86.3977 205.5826 0001934  94.1330 266.0087 14.34221181316272
IRIDIUM 176             
1 43923U 19002B   25025.91606631  .00000886  00000+0  13655-3 0  9993
2 43923  86.6105 205.5587 0001211  66.5027 293.6317 14.72255501324611
IRIDIUM 168             
1 43924U 19002C   25025.56364354 -.00000042  00000+0 -22164-4 0  9990
2 43924  86.3983 205.7650 0001800  87.9366 272.2036 14.34217329316215
IRIDIUM 173             
1 43925U 19002D   25025.89980047  .00000004  00000+0 -57518-5 0  9999
2 43925  86.3981 205.5343 0001852  95.3389 264.8018 14.34217889316247
IRIDIUM 169             
1 43926U 19002E   25025.63420374  .00000550  00000+0  17341-3 0  9997
2 43926  86.4197 237.2475 0001964 132.1600 227.9765 14.38601026317251
IRIDIUM 172             
1 43927U 19002F   25025.54461407  .00000120  00000+0  35833-4 0  9990
2 43927  86.3975 205.6888 0001937  89.2762 270.8655 14.34218608316208
IRIDIUM 175             
1 43928U 19002G   25025.84273539  .00002585  00000+0  40593-3 0  9996
2 43928  86.1542 166.2171 0003094 107.1752 252.9804 14.72247787324599
